[{"OBJECT_NAME":"RESURS-P 4","OBJECT_ID":"2024-061A","EPOCH":"2026-03-10T00:09:50.865408","MEAN_MOTION":15.32930455,"ECCENTRICITY":0.00024315,"INCLINATION":97.2654,"RA_OF_ASC_NODE":18.6595,"ARG_OF_PERICENTER":59.481,"MEAN_ANOMALY":300.6672,"EPHEMERIS_TYPE":0,"CLASSIFICATION_TYPE":"U","NORAD_CAT_ID":59371,"ELEMENT_SET_NO":999,"REV_AT_EPOCH":10857,"BSTAR":0.00016169192,"MEAN_MOTION_DOT":5.066e-5,"MEAN_MOTION_DDOT":0},{"OBJECT_NAME":"STARLINK-32832","OBJECT_ID":"2025-034M","EPOCH":"2026-03-09T22:17:33.097920","MEAN_MOTION":15.30206514,"ECCENTRICITY":0.00010809,"INCLINATION":53.1586,"RA_OF_ASC_NODE":256.9969,"ARG_OF_PERICENTER":91.3439,"MEAN_ANOMALY":268.7685,"EPHEMERIS_TYPE":0,"CLASSIFICATION_TYPE":"U","NORAD_CAT_ID":63040,"ELEMENT_SET_NO":999,"REV_AT_EPOCH":5912,"BSTAR":0.0010898265,"MEAN_MOTION_DOT":0.00032064,"MEAN_MOTION_DDOT":0}]
